NORAD_CAT_ID,OBJECT_NAME,OBJECT_TYPE,EPOCH,MEAN_MOTION,ECCENTRICITY,INCLINATION,RA_OF_ASC_NODE,ARG_OF_PERICENTER,MEAN_ANOMALY,BSTAR,MEAN_MOTION_DOT,MEAN_MOTION_DDOT,TLE_LINE0,TLE_LINE1,TLE_LINE2,SEMIMAJOR_AXIS,PERIOD,APOGEE,PERIGEE,DECAYED
52003.0,STARLINK-3654,PAYLOAD,2023-07-07 18:31:50,15.08837751,0.0001365,53.2167,80.1849,77.4952,282.6193,4.6687e-05,4.55e-06,0.0,0 STARLINK-3654,1 52003U 22025AZ  23188.77211381  .00000455  00000-0  46687-4 0  9992,2 52003  53.2167  80.1849 0001365  77.4952 282.6193 15.08837751 75104,6917.887,95.438,540.697,538.808,0.0
52003.0,STARLINK-3654,PAYLOAD,2023-07-08 02:28:45,15.08847171,0.0001199,53.2172,78.695,96.0945,264.0183,8.1891e-05,1.016e-05,0.0,0 STARLINK-3654,1 52003U 22025AZ  23189.10330554  .00001016  00000-0  81891-4 0  9994,2 52003  53.2172  78.6950 0001199  96.0945 264.0183 15.08847171 75154,6917.858,95.437,540.553,538.894,0.0
52003.0,STARLINK-3654,PAYLOAD,2023-07-09 02:19:33,15.08839785,0.0001077,53.2179,74.2349,97.767,262.3445,2.391e-05,9.3e-07,0.0,0 STARLINK-3654,1 52003U 22025AZ  23190.09691286  .00000093  00000-0  23910-4 0  9998,2 52003  53.2179  74.2349 0001077  97.7670 262.3445 15.08839785 75304,6917.881,95.438,540.491,539.001,0.0
52003.0,STARLINK-3654,PAYLOAD,2023-07-09 16:38:01,15.08835526,0.0001081,53.2177,71.5584,98.4575,261.654,-1.5624e-05,-5.36e-06,0.0,0 STARLINK-3654,1 52003U 22025AZ  23190.69307821 -.00000536  00000-0 -15624-4 0  9990,2 52003  53.2177  71.5584 0001081  98.4575 261.6540 15.08835526 75396,6917.894,95.438,540.507,539.011,0.0
52003.0,STARLINK-3654,PAYLOAD,2023-07-11 00:25:44,15.08844858,8.58e-05,53.2173,65.6119,91.8425,268.2665,0.00010577,1.396e-05,0.0,0 STARLINK-3654,1 52003U 22025AZ  23192.01787165  .00001396  00000-0  10577-3 0  9995,2 52003  53.2173  65.6119 0000858  91.8425 268.2665 15.08844858 75593,6917.866,95.437,540.324,539.137,0.0
52003.0,STARLINK-3654,PAYLOAD,2023-07-12 00:16:31,15.08843881,8.64e-05,53.2175,61.1515,92.8982,267.2109,8.609e-05,1.083e-05,0.0,0 STARLINK-3654,1 52003U 22025AZ  23193.01147351  .00001083  00000-0  86090-4 0  9990,2 52003  53.2175  61.1515 0000864  92.8982 267.2109 15.08843881 75746,6917.869,95.437,540.331,539.136,0.0
52003.0,STARLINK-3654,PAYLOAD,2023-07-12 14:35:00,15.08836633,0.0001073,53.2182,58.4756,83.1155,276.9959,6.0821e-05,6.8e-06,0.0,0 STARLINK-3654,1 52003U 22025AZ  23193.60764028  .00000680  00000-0  60821-4 0  9997,2 52003  53.2182  58.4756 0001073  83.1155 276.9959 15.08836633 75835,6917.891,95.438,540.498,539.013,0.0
52003.0,STARLINK-3654,PAYLOAD,2023-07-13 20:47:19,15.08841535,9.6e-05,53.2174,52.8263,85.0968,275.0134,1.2729e-05,-8.5e-07,0.0,0 STARLINK-3654,1 52003U 22025AZ  23194.86619891 -.00000085  00000-0  12729-4 0  9997,2 52003  53.2174  52.8263 0000960  85.0968 275.0134 15.08841535 76028,6917.876,95.437,540.405,539.077,0.0
52003.0,STARLINK-3654,PAYLOAD,2023-07-14 23:48:52,15.08851227,9.84e-05,53.2173,47.7696,88.8982,271.2123,9.0442e-05,1.152e-05,0.0,0 STARLINK-3654,1 52003U 22025AZ  23195.99226994  .00001152  00000-0  90442-4 0  9993,2 52003  53.2173  47.7696 0000984  88.8982 271.2123 15.08851227 76196,6917.846,95.437,540.392,539.03,0.0
52003.0,STARLINK-3654,PAYLOAD,2023-07-15 17:18:07,15.08841256,0.0001189,53.2181,44.4956,116.2192,243.8923,3.2174e-05,2.24e-06,0.0,0 STARLINK-3654,1 52003U 22025AZ  23196.72091754  .00000224  00000-0  32174-4 0  9996,2 52003  53.2181  44.4956 0001189 116.2192 243.8923 15.08841256 76302,6917.877,95.437,540.564,538.919,0.0
52003.0,STARLINK-3654,PAYLOAD,2023-07-16 20:19:41,15.08837891,8.88e-05,53.2192,39.4476,87.8773,272.2321,-2.7071e-05,-7.18e-06,0.0,0 STARLINK-3654,1 52003U 22025AZ  23197.84700418 -.00000718  00000-0 -27071-4 0  9994,2 52003  53.2192  39.4476 0000888  87.8773 272.2321 15.08837891 76474,6917.887,95.438,540.366,539.138,0.0
52003.0,STARLINK-3654,PAYLOAD,2023-07-17 20:10:27,15.08845544,9.34e-05,53.2182,34.9844,99.7066,260.4032,0.00015171,2.128e-05,0.0,0 STARLINK-3654,1 52003U 22025AZ  23198.84059488  .00002128  00000-0  15171-3 0  9991,2 52003  53.2182  34.9844 0000934  99.7066 260.4032 15.08845544 76620,6917.863,95.437,540.375,539.082,0.0
52003.0,STARLINK-3654,PAYLOAD,2023-07-18 12:04:19,15.08835137,0.0001139,53.2187,32.0094,82.8554,277.2567,7.8513e-05,9.62e-06,0.0,0 STARLINK-3654,1 52003U 22025AZ  23199.50300610  .00000962  00000-0  78513-4 0  9995,2 52003  53.2187  32.0094 0001139  82.8554 277.2567 15.08835137 76721,6917.895,95.438,540.548,538.972,0.0
52003.0,STARLINK-3654,PAYLOAD,2023-07-19 16:41:16,15.08832178,9.78e-05,53.2186,26.6567,101.3053,258.8049,-1.2122e-05,-4.81e-06,0.0,0 STARLINK-3654,1 52003U 22025AZ  23200.69533344 -.00000481  00000-0 -12122-4 0  9992,2 52003  53.2186  26.6567 0000978 101.3053 258.8049 15.08832178 76907,6917.904,95.438,540.446,539.093,0.0
52003.0,STARLINK-3654,PAYLOAD,2023-07-20 19:42:48,15.08874387,0.0002041,53.218,21.611,49.971,310.1461,-9.7823e-05,-1.846e-05,0.0,0 STARLINK-3654,1 52003U 22025AZ  23201.82138939 -.00001846  00000-0 -97823-4 0  9996,2 52003  53.2180  21.6110 0002041  49.9710 310.1461 15.08874387 77077,6917.775,95.435,541.052,538.228,0.0
52003.0,STARLINK-3654,PAYLOAD,2023-07-21 11:36:40,15.08839621,7.51e-05,53.218,18.6252,116.5939,243.513,0.0001157,1.554e-05,0.0,0 STARLINK-3654,1 52003U 22025AZ  23202.48380497  .00001554  00000-0  11570-3 0  9995,2 52003  53.2180  18.6252 0000751 116.5939 243.5130 15.08839621 77175,6917.882,95.438,540.266,539.227,0.0
52003.0,STARLINK-3654,PAYLOAD,2023-07-24 11:09:02,15.08838415,9.63e-05,53.218,5.2469,95.753,264.3572,7.1691e-05,8.53e-06,0.0,0 STARLINK-3654,1 52003U 22025AZ  23205.46461043  .00000853  00000-0  71691-4 0  9995,2 52003  53.2180   5.2469 0000963  95.7530 264.3572 15.08838415 76111,6917.885,95.438,540.416,539.084,0.0
52003.0,STARLINK-3654,PAYLOAD,2023-07-25 10:59:49,15.08838301,0.0001584,53.215,0.7854,104.673,255.4437,2.9907e-05,1.88e-06,0.0,0 STARLINK-3654,1 52003U 22025AZ  23206.45821458  .00000188  00000-0  29907-4 0  9999,2 52003  53.2150   0.7854 0001584 104.6730 255.4437 15.08838301 76269,6917.886,95.438,540.846,538.655,0.0
52003.0,STARLINK-3654,PAYLOAD,2023-07-26 10:50:36,15.08833122,0.0001002,53.2193,356.3273,97.6267,262.4839,0.00011116,1.481e-05,0.0,0 STARLINK-3654,1 52003U 22025AZ  23207.45181560  .00001481  00000-0  11116-3 0  9992,2 52003  53.2193 356.3273 0001002  97.6267 262.4839 15.08833122 76419,6917.901,95.438,540.46,539.073,0.0
52003.0,STARLINK-3654,PAYLOAD,2023-07-27 02:44:27,15.08840993,0.0001341,53.218,353.353,93.8252,266.2893,0.00012192,1.653e-05,0.0,0 STARLINK-3654,1 52003U 22025AZ  23208.11421093  .00001653  00000-0  12192-3 0  9990,2 52003  53.2180 353.3530 0001341  93.8252 266.2893 15.08840993 78021,6917.877,95.437,540.67,538.815,0.0
52003.0,STARLINK-3654,PAYLOAD,2023-07-27 18:38:20,15.0883285,0.0001053,53.2189,350.3788,100.0259,260.0852,1.006e-06,-2.72e-06,0.0,0 STARLINK-3654,1 52003U 22025AZ  23208.77662076 -.00000272  00000-0  10060-5 0  9991,2 52003  53.2189 350.3788 0001053 100.0259 260.0852 15.08832850 78121,6917.902,95.438,540.496,539.039,0.0
52003.0,STARLINK-3654,PAYLOAD,2023-07-28 02:35:15,15.08836368,9.1e-05,53.2189,348.8924,93.6819,266.4278,-2.5823e-05,-6.99e-06,0.0,0 STARLINK-3654,1 52003U 22025AZ  23209.10781923 -.00000699  00000-0 -25823-4 0  9998,2 52003  53.2189 348.8924 0000910  93.6819 266.4278 15.08836368 76662,6917.891,95.438,540.386,539.127,0.0
52003.0,STARLINK-3654,PAYLOAD,2023-07-28 15:18:20,15.08841618,9.73e-05,53.2187,346.5137,99.3546,260.7556,2.2712e-05,7.4e-07,0.0,0 STARLINK-3654,1 52003U 22025AZ  23209.63773559  .00000074  00000-0  22712-4 0  9991,2 52003  53.2187 346.5137 0000973  99.3546 260.7556 15.08841618 78257,6917.875,95.437,540.414,539.067,0.0
52003.0,STARLINK-3654,PAYLOAD,2023-07-29 19:55:15,15.08852569,5.37e-05,53.2163,341.1624,111.5341,248.5709,0.0001289,1.765e-05,0.0,0 STARLINK-3654,1 52003U 22025AZ  23210.83004333  .00001765  00000-0  12890-3 0  9995,2 52003  53.2163 341.1624 0000537 111.5341 248.5709 15.08852569 78430,6917.842,95.437,540.078,539.335,0.0
52003.0,STARLINK-3654,PAYLOAD,2023-07-30 08:38:22,15.08838724,0.0001663,53.2139,338.7826,87.5002,272.6181,4.3725e-05,4.08e-06,0.0,0 STARLINK-3654,1 52003U 22025AZ  23211.35997825  .00000408  00000-0  43725-4 0  9995,2 52003  53.2139 338.7826 0001663  87.5002 272.6181 15.08838724 78514,6917.884,95.438,540.9,538.599,0.0
52003.0,STARLINK-3654,PAYLOAD,2023-07-31 14:50:41,15.08849921,9.81e-05,53.2194,333.1348,80.4815,279.6288,5.8392e-05,6.42e-06,0.0,0 STARLINK-3654,1 52003U 22025AZ  23212.61853161  .00000642  00000-0  58392-4 0  9995,2 52003  53.2194 333.1348 0000981  80.4815 279.6288 15.08849921 78706,6917.85,95.437,540.394,539.036,0.0
52003.0,STARLINK-3654,PAYLOAD,2023-07-31 19:36:50,15.08854572,0.0001257,53.2192,332.2421,92.8717,267.2419,0.00014033,1.947e-05,0.0,0 STARLINK-3654,1 52003U 22025AZ  23212.81724639  .00001947  00000-0  14033-3 0  9996,2 52003  53.2192 332.2421 0001257  92.8717 267.2419 15.08854572 78731,6917.836,95.437,540.57,538.831,0.0
52003.0,STARLINK-3654,PAYLOAD,2023-08-01 17:52:15,15.08839083,0.0001033,53.2182,328.0777,83.9428,276.1681,9.6444e-05,1.247e-05,0.0,0 STARLINK-3654,1 52003U 22025AZ  23213.74462109  .00001247  00000-0  96444-4 0  9990,2 52003  53.2182 328.0777 0001033  83.9428 276.1681 15.08839083 78874,6917.883,95.438,540.463,539.034,0.0
52003.0,STARLINK-3654,PAYLOAD,2023-08-02 17:43:01,15.08863699,0.0001028,53.2181,323.6182,76.8218,283.2889,0.00067326,0.0001045,0.0,0 STARLINK-3654,1 52003U 22025AZ  23214.73821330  .00010450  00000-0  67326-3 0  9997,2 52003  53.2181 323.6182 0001028  76.8218 283.2889 15.08863699 79023,6917.808,95.436,540.384,538.962,0.0
52003.0,STARLINK-3654,PAYLOAD,2023-08-03 08:01:29,15.08852407,9.91e-05,53.2177,320.9417,89.3849,270.7257,0.00022891,3.358e-05,0.0,0 STARLINK-3654,1 52003U 22025AZ  23215.33437333  .00003358  00000-0  22891-3 0  9997,2 52003  53.2177 320.9417 0000991  89.3849 270.7257 15.08852407 79111,6917.842,95.437,540.393,539.022,0.0
